start=new Date('2023-05-05T00:00:00.000Z').valueOf();
sats=[{"MEAN_ELEMENT_THEORY":"SGP4","ARG_OF_PERICENTER":"90.4012","TLE_LINE2":"2 53406  53.2169 104.4484 0001281  90.4012 269.7127 15.08839546 41591","APOAPSIS":"540.633","RA_OF_ASC_NODE":"104.4484","OBJECT_TYPE":"PAYLOAD","MEAN_MOTION_DDOT":"0.0000000000000","PERIAPSIS":"538.861","EPOCH":"2023-05-04T08:03:24.920640","REV_AT_EPOCH":"4159","TIME_SYSTEM":"UTC","GP_ID":"231240294","TLE_LINE1":"1 53406U 22097U   23124.33570510  .00000000  00000-0  18066-4 0  9999","INCLINATION":"53.2169","ECCENTRICITY":"0.00012810","OBJECT_ID":"2022-097U","CENTER_NAME":"EARTH","LAUNCH_DATE":"2022-08-10","COUNTRY_CODE":"US","REF_FRAME":"TEME","BSTAR":"0.00001806600000","MEAN_MOTION":"15.08839546","NORAD_CAT_ID":"53406","DECAY_DATE":null,"MEAN_ANOMALY":"269.7127","MEAN_MOTION_DOT":"0.00000000","SEMIMAJOR_AXIS":"6917.882","FILE":"3900892","RCS_SIZE":"LARGE","PERIOD":"95.438","OBJECT_NAME":"STARLINK-4533","EPHEMERIS_TYPE":"0","ELEMENT_SET_NO":"999","CLASSIFICATION_TYPE":"U","SITE":"AFETR"},{"MEAN_ANOMALY":"264.7622","DECAY_DATE":null,"MEAN_MOTION_DOT":"0.00000742","SEMIMAJOR_AXIS":"6917.903","BSTAR":"0.00006473200000","REF_FRAME":"TEME","NORAD_CAT_ID":"53407","MEAN_MOTION":"15.08832604","CLASSIFICATION_TYPE":"U","SITE":"AFETR","FILE":"3901165","RCS_SIZE":"LARGE","OBJECT_NAME":"STARLINK-4537","PERIOD":"95.438","ELEMENT_SET_NO":"999","EPHEMERIS_TYPE":"0","TLE_LINE2":"2 53407  53.2184  91.9743 0001459  95.3536 264.7622 15.08832604 41334","APOAPSIS":"540.777","MEAN_ELEMENT_THEORY":"SGP4","ARG_OF_PERICENTER":"95.3536","CENTER_NAME":"EARTH","OBJECT_ID":"2022-097V","LAUNCH_DATE":"2022-08-10","COUNTRY_CODE":"US","OBJECT_TYPE":"PAYLOAD","RA_OF_ASC_NODE":"91.9743","MEAN_MOTION_DDOT":"0.0000000000000","TIME_SYSTEM":"UTC","REV_AT_EPOCH":"4133","EPOCH":"2023-05-04T22:33:51.014592","PERIAPSIS":"538.759","ECCENTRICITY":"0.00014590","TLE_LINE1":"1 53407U 22097V   23124.94017378  .00000742  00000-0  64732-4 0  9999","INCLINATION":"53.2184","GP_ID":"231249026"},{"FILE":"3901165","RCS_SIZE":"LARGE","PERIOD":"95.438","OBJECT_NAME":"STARLINK-4491","EPHEMERIS_TYPE":"0","ELEMENT_SET_NO":"999","CLASSIFICATION_TYPE":"U","SITE":"AFETR","REF_FRAME":"TEME","BSTAR":"0.00006083400000","MEAN_MOTION":"15.08838191","NORAD_CAT_ID":"53408","DECAY_DATE":null,"MEAN_ANOMALY":"282.2417","MEAN_MOTION_DOT":"0.00000680","SEMIMAJOR_AXIS":"6917.886","RA_OF_ASC_NODE":"101.7236","OBJECT_TYPE":"PAYLOAD","MEAN_MOTION_DDOT":"0.0000000000000","PERIAPSIS":"538.834","EPOCH":"2023-05-04T22:37:46.623072","REV_AT_EPOCH":"4119","TIME_SYSTEM":"UTC","GP_ID":"231249288","ECCENTRICITY":"0.00013260","TLE_LINE1":"1 53408U 22097W   23124.94290073  .00000680  00000-0  60834-4 0  9995","INCLINATION":"53.2150","OBJECT_ID":"2022-097W","CENTER_NAME":"EARTH","LAUNCH_DATE":"2022-08-10","COUNTRY_CODE":"US","MEAN_ELEMENT_THEORY":"SGP4","ARG_OF_PERICENTER":"77.8723","TLE_LINE2":"2 53408  53.2150 101.7236 0001326  77.8723 282.2417 15.08838191 41199","APOAPSIS":"540.668"},{"MEAN_ELEMENT_THEORY":"SGP4","ARG_OF_PERICENTER":"98.6915","TLE_LINE2":"2 53409  53.2179  94.6249 0001394  98.6915 261.4235 15.08844321 41733","APOAPSIS":"540.697","MEAN_MOTION_DDOT":"0.0000000000000","OBJECT_TYPE":"PAYLOAD","RA_OF_ASC_NODE":"94.6249","TLE_LINE1":"1 53409U 22097X   23124.34031966 -.00000777  00000-0 -30726-4 0  9990","INCLINATION":"53.2179","ECCENTRICITY":"0.00013940","GP_ID":"231240051","REV_AT_EPOCH":"4173","TIME_SYSTEM":"UTC","EPOCH":"2023-05-04T08:10:03.618624","PERIAPSIS":"538.768","LAUNCH_DATE":"2022-08-10","CENTER_NAME":"EARTH","OBJECT_ID":"2022-097X","COUNTRY_CODE":"US","NORAD_CAT_ID":"53409","MEAN_MOTION":"15.08844321","BSTAR":"-0.00003072600000","REF_FRAME":"TEME","MEAN_ANOMALY":"261.4235","DECAY_DATE":null,"SEMIMAJOR_AXIS":"6917.867","MEAN_MOTION_DOT":"-0.00000777","RCS_SIZE":"LARGE","FILE":"3900892","ELEMENT_SET_NO":"999","EPHEMERIS_TYPE":"0","OBJECT_NAME":"STARLINK-4490","PERIOD":"95.437","CLASSIFICATION_TYPE":"U","SITE":"AFETR"},{"LAUNCH_DATE":"2022-08-10","OBJECT_ID":"2022-097Y","CENTER_NAME":"EARTH","COUNTRY_CODE":"US","MEAN_MOTION_DDOT":"0.0000000000000","RA_OF_ASC_NODE":"101.7390","OBJECT_TYPE":"PAYLOAD","GP_ID":"231249287","TLE_LINE1":"1 53410U 22097Y   23124.93921930  .00001141  00000-0  89734-4 0  9993","INCLINATION":"53.2160","ECCENTRICITY":"0.00012050","PERIAPSIS":"538.908","EPOCH":"2023-05-04T22:32:28.547520","REV_AT_EPOCH":"4119","TIME_SYSTEM":"UTC","TLE_LINE2":"2 53410  53.2160 101.7390 0001205  91.7398 268.3732 15.08841324 41190","APOAPSIS":"540.575","MEAN_ELEMENT_THEORY":"SGP4","ARG_OF_PERICENTER":"91.7398","SITE":"AFETR","CLASSIFICATION_TYPE":"U","RCS_SIZE":"LARGE","FILE":"3901165","EPHEMERIS_TYPE":"0","ELEMENT_SET_NO":"999","PERIOD":"95.437","OBJECT_NAME":"STARLINK-4492","DECAY_DATE":null,"MEAN_ANOMALY":"268.3732","SEMIMAJOR_AXIS":"6917.876","MEAN_MOTION_DOT":"0.00001141","MEAN_MOTION":"15.08841324","NORAD_CAT_ID":"53410","REF_FRAME":"TEME","BSTAR":"0.00008973400000"},{"COUNTRY_CODE":"US","LAUNCH_DATE":"2022-08-10","CENTER_NAME":"EARTH","OBJECT_ID":"2022-097Z","TLE_LINE1":"1 53411U 22097Z   23124.41665240  .00000734  00000-0  64157-4 0  9995","ECCENTRICITY":"0.00011980","INCLINATION":"53.2171","GP_ID":"231239552","REV_AT_EPOCH":"4160","TIME_SYSTEM":"UTC","PERIAPSIS":"538.890","EPOCH":"2023-05-04T09:59:58.767360","MEAN_MOTION_DDOT":"0.0000000000000","OBJECT_TYPE":"PAYLOAD","RA_OF_ASC_NODE":"104.0873","APOAPSIS":"540.547","TLE_LINE2":"2 53411  53.2171 104.0873 0001198  89.3145 270.7984 15.08848852 41604","ARG_OF_PERICENTER":"89.3145","MEAN_ELEMENT_THEORY":"SGP4","CLASSIFICATION_TYPE":"U","SITE":"AFETR","ELEMENT_SET_NO":"999","EPHEMERIS_TYPE":"0","OBJECT_NAME":"STARLINK-4497","PERIOD":"95.437","RCS_SIZE":"LARGE","FILE":"3900892","SEMIMAJOR_AXIS":"6917.853","MEAN_MOTION_DOT":"0.00000734","MEAN_ANOMALY":"270.7984","DECAY_DATE":null,"NORAD_CAT_ID":"53411","MEAN_MOTION":"15.08848852","BSTAR":"0.00006415700000","REF_FRAME":"TEME"},{"ARG_OF_PERICENTER":"84.6507","MEAN_ELEMENT_THEORY":"SGP4","APOAPSIS":"540.668","TLE_LINE2":"2 53412  53.2151 101.7889 0001323  84.6507 275.4636 15.08837426 41683","TLE_LINE1":"1 53412U 22097AA  23124.92816788 -.00002633  00000-0 -14738-3 0  9998","INCLINATION":"53.2151","ECCENTRICITY":"0.00013230","GP_ID":"231272852","REV_AT_EPOCH":"4168","TIME_SYSTEM":"UTC","EPOCH":"2023-05-04T22:16:33.704832","PERIAPSIS":"538.838","MEAN_MOTION_DDOT":"0.0000000000000","OBJECT_TYPE":"PAYLOAD","RA_OF_ASC_NODE":"101.7889","COUNTRY_CODE":"US","LAUNCH_DATE":"2022-08-10","CENTER_NAME":"EARTH","OBJECT_ID":"2022-097AA","NORAD_CAT_ID":"53412","MEAN_MOTION":"15.08837426","BSTAR":"-0.00014738000000","REF_FRAME":"TEME","SEMIMAJOR_AXIS":"6917.888","MEAN_MOTION_DOT":"-0.00002633","MEAN_ANOMALY":"275.4636","DECAY_DATE":null,"ELEMENT_SET_NO":"999","EPHEMERIS_TYPE":"0","OBJECT_NAME":"STARLINK-4496","PERIOD":"95.438","RCS_SIZE":"LARGE","FILE":"3901186","CLASSIFICATION_TYPE":"U","SITE":"AFETR"},{"ARG_OF_PERICENTER":"92.3602","MEAN_ELEMENT_THEORY":"SGP4","APOAPSIS":"540.756","TLE_LINE2":"2 53413  53.2169 104.4305 0001458  92.3602 267.7557 15.08839274 41596","GP_ID":"231240552","INCLINATION":"53.2169","TLE_LINE1":"1 53413U 22097AB  23124.33938280  .00000247  00000-0  33605-4 0  9998","ECCENTRICITY":"0.00014580","PERIAPSIS":"538.739","EPOCH":"2023-05-04T08:08:42.673920","REV_AT_EPOCH":"4159","TIME_SYSTEM":"UTC","MEAN_MOTION_DDOT":"0.0000000000000","RA_OF_ASC_NODE":"104.4305","OBJECT_TYPE":"PAYLOAD","COUNTRY_CODE":"US","LAUNCH_DATE":"2022-08-10","OBJECT_ID":"2022-097AB","CENTER_NAME":"EARTH","MEAN_MOTION":"15.08839274","NORAD_CAT_ID":"53413","REF_FRAME":"TEME","BSTAR":"0.00003360500000","SEMIMAJOR_AXIS":"6917.883","MEAN_MOTION_DOT":"0.00000247","DECAY_DATE":null,"MEAN_ANOMALY":"267.7557","EPHEMERIS_TYPE":"0","ELEMENT_SET_NO":"999","PERIOD":"95.438","OBJECT_NAME":"STARLINK-4500","RCS_SIZE":"LARGE","FILE":"3900892","SITE":"AFETR","CLASSIFICATION_TYPE":"U"},{"APOAPSIS":"542.903","TLE_LINE2":"2 53414  53.2181 103.9012 0004572  20.8006 339.3171 15.08841758 41604","ARG_OF_PERICENTER":"20.8006","MEAN_ELEMENT_THEORY":"SGP4","COUNTRY_CODE":"US","LAUNCH_DATE":"2022-08-10","CENTER_NAME":"EARTH","OBJECT_ID":"2022-097AC","ECCENTRICITY":"0.00045720","TLE_LINE1":"1 53414U 22097AC  23124.46081084  .00000429  00000-0  45125-4 0  9996","INCLINATION":"53.2181","GP_ID":"231240295","REV_AT_EPOCH":"4160","TIME_SYSTEM":"UTC","PERIAPSIS":"536.577","EPOCH":"2023-05-04T11:03:34.056576","MEAN_MOTION_DDOT":"0.0000000000000","OBJECT_TYPE":"PAYLOAD","RA_OF_ASC_NODE":"103.9012","SEMIMAJOR_AXIS":"6917.875","MEAN_MOTION_DOT":"0.00000429","MEAN_ANOMALY":"339.3171","DECAY_DATE":null,"NORAD_CAT_ID":"53414","MEAN_MOTION":"15.08841758","BSTAR":"0.00004512500000","REF_FRAME":"TEME","SITE":"AFETR","CLASSIFICATION_TYPE":"U","ELEMENT_SET_NO":"999","EPHEMERIS_TYPE":"0","OBJECT_NAME":"STARLINK-4304","PERIOD":"95.437","RCS_SIZE":"LARGE","FILE":"3900892"},{"RA_OF_ASC_NODE":"104.4972","OBJECT_TYPE":"PAYLOAD","MEAN_MOTION_DDOT":"0.0000000000000","PERIAPSIS":"538.897","EPOCH":"2023-05-04T07:47:30.460704","REV_AT_EPOCH":"4156","TIME_SYSTEM":"UTC","GP_ID":"231239052","TLE_LINE1":"1 53415U 22097AD  23124.32465811  .00000351  00000-0  40114-4 0  9993","INCLINATION":"53.2159","ECCENTRICITY":"0.00012110","OBJECT_ID":"2022-097AD","CENTER_NAME":"EARTH","LAUNCH_DATE":"2022-08-10","COUNTRY_CODE":"US","MEAN_ELEMENT_THEORY":"SGP4","ARG_OF_PERICENTER":"92.8186","TLE_LINE2":"2 53415  53.2159 104.4972 0001211  92.8186 267.2945 15.08843602 41569","APOAPSIS":"540.572","FILE":"3900892","RCS_SIZE":"LARGE","PERIOD":"95.437","OBJECT_NAME":"STARLINK-4479","EPHEMERIS_TYPE":"0","ELEMENT_SET_NO":"999","CLASSIFICATION_TYPE":"U","SITE":"AFETR","REF_FRAME":"TEME","BSTAR":"0.00004011400000","MEAN_MOTION":"15.08843602","NORAD_CAT_ID":"53415","DECAY_DATE":null,"MEAN_ANOMALY":"267.2945","MEAN_MOTION_DOT":"0.00000351","SEMIMAJOR_AXIS":"6917.869"}];
